id,title,address,lat,lng,link,category,body,createdAt,updatedAt,
1,Greenville VegFest,"Greenville, SC, USA",,,http://www.greenvillevegfest.com/,TK,,,,
2,Birmingham Vegan Food and Drink Festival,"Manchester, UK",,,n/a,n/a,,,,
3,Stroud Vegan Fair,"Stroud, UK",,,n/a,TK,,,,
4,Cardiff Vegan Food and Drink Festival,"Cardiff, UK",,,n/a,n/a,,,,
5,Palm Beach VegFest,"Palm Beach, FL, USA",,,https://www.pbvegfest.com/,@PBVegFest,,,,
6,Sedona Veg Fest,"Sedona, AZ, USA",,,http://healthyworldsedona.com/sedona-vegfest-2017/,@sedona_veg_fest,,,,
7,Arizona Vegetarian Food Festival,"Scottsdale, AZ, USA",,,http://azvegfoodfest.com/,@azvegfoodfest,,,,
8,Chennai VegFest,"Chennai, INDIA",,,n/a,n/a,,,,
9,Veganmania (Indoor),"Innsbruck, AUSTRIA",,,http://www.veganmania.at/,n/a,,,,
10,SacTown VegFest,"Sacramento, CA, USA",,,http://sactownvegfest.org/,@sactownvegfest,,,,
11,Kingston Yoga & Vegan Food Festival,"Kingston upon Thames, UK",,,http://yogific.com/kingston-yoga-and-vegan-fest/,@yogific,,,,
12,SWFL Veg Fest,"Bonita Springs, FL, USA",,,http://www.swflvegfest.org/,@SWFLVEGFEST,,,,
13,Frome Vegan Fair,"Somerset, UK",,,n/a,@fromeveganfair,,,,
14,Vegan Life Live London ,"London, UK",,,https://www.veganlifelive.com/,@veganlife_live,,,,
15,Plant Fest,"Irvine, CA, USA",,,n/a,n/a,,,,
16,Cardiff Viva! Vegan Festival,"Cardiff, UK",,,http://www.viva.org.uk/festivals/cardiff-2018,@vivacharity,,,,
17,PHX Vegan Beer & Food Festival,"Phoenix, AZ, USA",,,http://phxveganfest.com/,@phxveganfest,,,,
18,Puerto Rico Vegan Fest,"Fajardo, PR, USA",,,http://www.puertoricoveganfest.com,n/a,,,,
19,Essex Vegan Festival,"Colchester, Essex, UK",,,n/a,n/a,,,,
20,Portsmouth Vegan Festival,"Portsmouth, UK",,,n/a,n/a,,,,
21,Oxford Yoga and Vegan Festival,"Oxford, UK",,,http://yogific.org/oxford/,@yogific,,,,
22,North East Vegan Festival (NEVFEST),"Sunderland, UK",,,http://www.northeastveganfestival.co.uk/,n/a,,,,
23,V313: Detroit's Premier Vegan Celebration,"Detroit, MI, USA",,,https://migreenteam.com/V313,TK,,,,
24,Oxford Vegan Festival,"Oxford, UK",,,https://www.oxfordveganfestival.com,n/a,,,,
25,Red & Green VegFest Albuquerque,"Albuquerque, NM, USA",,,https://redandgreenvegfestabq.wordpress.com/,n/a,,,,
26,London Viva! Vegan Festival,"London, UK",,,https://www.viva.org.uk/festivals/london-shoreditch-2018,@vivacharity,,,,
27,Love Vegan Festival,"Falkirk, UK",,,https://www.animalaid.org.uk/events/love-vegan-festival/,n/a,,,,
28,Hoffdot Vegan Fest ,"Barreiro, PORTUGAL",,,https://veganariofest.wordpress.com/,TK,,,,
29,North Florida VegFest,"Tallahassee, FL, USA",,,http://www.northfloridavegfest.com/,@nfvegfest,,,,
30,VegOut! Scottsdale Vegan Beer & Food Festival,"Scottsdale, AZ, USA",,,http://vegoutevents.com/,n/a,,,,
31,Walsall Vegan Fair,"Walsall, UK",,,http://veganmidlands.org.uk,n/a,,,,
32,Brighton Vegan Beer Festival,"Brighton, UK",,,http://cowleyclub.org.uk/,double check,,,,
33,Earth Day Vegan Festival & Forum,"Jakarta, INDONESIA",,,TK,@veganfestival.id ,,,,
34,Live A Better Life Vegan Fair Liverpool,"Liverpool, UK",,,http://www.labl.org.uk,@labl.vegan,,,,
35,Des Moines VeganFest,"Des Moines, IA. USA",,,http://veglifedesmoines.org/,@veglifedesmoines,,,,
36,VegFestUK Brighton,"Brighton, UK",,,http://brighton.vegfest.co.uk/,@VegfestUK,,,,
37,Vegan Street Fair Los Angeles,"Los Angeles, CA, USA",,,http://www.veganstreetfair.com,@VeganStreetFair,,,,
38,Indy VegFest,"Indianapolis, IN, USA",,,http://www.indyvegfest.com,@indyvegfest,,,,
39,Curacao Vegfest,"Willemstad, CURACAO",,,n/a,n/a,,,,
40,Lincoln VEGAN Festival,"Lincoln, UK",,,n/a,n/a,,,,
41,Northern Vegan Festival,"Manchester, UK",,,https://www.northernveganfestival.com,n/a,,,,
42,Valley Vegfest,"Northampton, MA, USA",,,http://www.valleyveg.org/vegfest/,n/a,,,,
43,Texas VegFest,"Austin, TX, USA",,,http://www.texasvegfest.com/,@txvegfest,,,,
44,Nashville VegFest,"Nashville, TN, USA",,,http://www.nashvillevegfest.com/,@nashvillevegfest,,,,
45,Indonesia International Vegan Festival & Forum,"Jakarta, INDONESIA",,,TK,@veganfestival.id ,,,,
46,Wilmington Vegfest,"Wilmington, NC, USA",,,wilmingtonvegfest.com,@WilmingtonVeg,,,,
47,Glasgow Vegan Festival,"Glasgow, SCOTLAND",,,n/a,@Veganfestivaluk,,,,
48,FarGo's Vegan Festival,"Fargo Village, Coventry, UK",,,n/a,n/a,,,,
49,Puerto Rico VegFest,"Rincon, PR",,,n/a,TK,,,,
50,Midwest Vegan Fest,"Glendale, WI, USA",,,https://midwestveganfest.com,@midwestveganfest,,,,
51,Lucca VeganFest,"Lucca, ITALY",,,http://www.veganfest.it/,n/a,,,,
52,NH VegFest,"Manchester, NH, USA",,,http://nhvegfest.com/,n/a,,,,
53,Stroud Yoga and Vegan Festival,"Stroud, UK",,,http://yogific.org/event/stroud-yoga-and-vegan-festival/,@yogific,,,,
54,Vegan Life Live Manchester ,"Manchester, UK",,,https://www.veganlifelive.com,@veganlife_live,,,,
55,Matlock Vegan Fest,"Derbyshire, UK",,,TK,TK,,,,
56,Leicester Vegan Festival ,"Leicester, UK",,,n/a,n/a,,,,
57,Noosa Vegan Festival,"Queensland, AUSTRALIA",,,https://noosaveganfestival.com.au/,@noosaveganfestival,,,,
58,Scottish Vegan Festival,"Edinburgh, SCOTLAND",,,http://www.scottishveganfestival.com/,n/a,,,,
59,Didim VegFest,TURKEY,,,http://didimvegfest.com/en/home-3/,@didimvegfest,,,,
60,Berkeley Earth Day,"Berkeley, CA, USA",,,http://www.berkeleyveganearthday.com/,n/a,,,,
61,Charleston Sol-Food Veg Fest,"Mount Pleasant, SC, USA",,,http://csfvegfest.com/,TK,,,,
62,Vegenement Zeeland,TK,,,TK,TK,,,,
63,New England VegFest,"Worcester, MA, USA",,,http://worcestervegfest.com/,@VegWorcester,,,,
64,Michigan VegFest ,"Novi, MI, USA",,,http://vegmichigan.org/activities/vegfest/,n/a,,,,
65,Liverpool Vegan Festival,"Liverpool, UK",,,n/a,n/a,,,,
66,Milwaukee Veg Expo,"Wauwatosa, WI, USA",,,mkevegexpo.com,n/a,,,,
67,Veggie Fest Hamilton,"Hamilton, ON, CANADA",,,http://www.veggiefesthamilton.com/,@veggiefest,,,,
68,North East Vegan Festival (NEVFEST),"Sunderland, UK",,,http://www.northeastveganfestival.co.uk/,n/a,,,,
69,Cleveland VegFest,"Cleveland, OH, USA",,,http://www.clevelandvegansociety.org,@clevegfest,,,,
70,Vegan Amsterdam Festival,"Amsterdam, NETHERLANDS",,,http://www.veganamsterdam.org/,@vegan_amsterdam,,,,
71,VegFest Los Angeles,"Los Angeles, CA, USA",,,http://vegfestla.org/home,@begfestla,,,,
72,Herbivore Festival,"Yucaipa, CA, USA",,,http://herbivorefestival.com/index.html,@herbivorefestival,,,,
73,Powell River Vegfest,"Powell RIver, BC, CANADA",,,n/a,n/a,,,,
74,Nottingham Viva! Vegan Festival,"Nottingham, UK",,,https://www.viva.org.uk/festivals/nottingham-2018,@vivacharity,,,,
75,Shoreditch Viva! Vegan Festival,"Shoreditch, UK",,,https://www.viva.org.uk/festivals,n/a,,,,
76,Kent Vegan Festival,"Kent, UK",,,https://kentveganfestival.org/,@kentveganfest,,,,
77,Vegan Street Fair San Diego Nights,"San Diego, CA, USA",,,http://www.veganstreetfair.com,@VeganStreetFair,,,,
78,Mississauga VegFest,"Mississauga, ON, CANADA",,,http://mississaugavegfest.ca/,n/a,,,,
79,Cork Vegfest,"Cork, IRELAND",,,http://corkvegfest.com,@dublinvegfest,,,,
80,Argyll Wee Vegan Fair,"Oban, SCOTLAND",,,n/a,n/a,,,,
81,Nijmegen Yoga and Vegan Festival,"Nijmegen, Netherlands",,,https://www.facebook.com/events/325043261340377/,@yogific,,,,
82,Oakland VegFest,"Oakland, CA, USA",,,http://www.oaklandvegfest.com/,n/a,,,,
83,NYC Vegetarian Food Festival,"New York, NY, USA",,,http://www.nycvegfoodfest.com/,@nycvegfoodfest,,,,
84,Dorset Vegan Festival,"Dorset, UK",,,https://www.veganeventsuk.co.uk/,,,,,
85,Seed Food and Wine LA,"Los Angeles, CA, USA",,,https://www.seedfoodandwinela.com/,@sfwla,,,,
86,Vegan Foodie Festival Amsterdam,"Amsterdam, NETHERLANDS",,,http://www.veganfoodiefestival.com/,TK,,,,
87,Rotterdam Vegan Food & Drinks festival,"Rotterdam, NETHERLANDS",,,TK,TK,,,,
88,Oslo Vegetarfestival,"Oslo, NORWAY",,,https://www.oslovegetarfestival.no/,@oslovegetarfestival ,,,,
89,Eat Drink Vegan LA,"Pasadena, CA, USA",,,https://eatdrinkvegan.com/,@eatdrinkvegan,,,,
90,VegFestUK Bristol,"Bristol, UK",,,http://bristol.vegfest.co.uk/,@VegfestUK,,,,
91,Houston Vegandale Food Drink Festival,"Houston, TX, USA",,,www.vegandalefest.com,@vegandale,,,,
92,Ottawa Veg Fest,"Ottawa, ON, CANADA",,,http://www.vegfest.ca/,n/a,,,,
93,Maine Animal Coalition's Annual Vegetarian Food Festival,"Portland, ME, USA",,,http://www.maineanimalcoalition.org/vegetarian-food-festival,@maine.animal.coalition,,,,
94,Albany VegFest,"Albany, NY, USA",,,http://www.albanyvegfest.org/,n/a,,,,
95,Brighton Vegan Summer Festival,"Brighton, UK",,,http://vegansummerfestuk.com/,n/a,,,,
96,Lancaster VegFest,"Lancaster, PA, USA",,,http://pavegfest.com/,@pavegfest,,,,
97,Triad Veg Fest,"Greensboro, NC, USA",,,http://www.triadvegfest.org/,@triadvegfest,,,,
98,Veganmania,"Wien, AUSTRIA",,,http://www.veganmania.at/,n/a,,,,
99,Philly VegFest,"Philadelphia, PA, USA",,,phillyvegfest.com,TK,,,,
100,VegFest LT,"Vilnius, LITHUANIA",,,n/a,@vegfestlt,,,,
101,Asheville VeganFest,"Asheville, NC, USA",,,https://veganfest.bwar.org/,@brotherwolfanimalrescue,,,,
102,Rehoboth Beach VegFest ,"Rehoboth, DE, USA",,,http://rehobothvegfest.org/,n/a,,,,
103,Dublin Yoga and Vegan Festival,"Dublin, IRELAND",,,n/a,@yogific,,,,
104,South Bay VegFair,"San Jose, CA, USA",,,https://www.summerveg.com/,n/a,,,,
105,Great Yorkshire Vegan Festival,"Leeds, UK",,,http://www.yorkshireveganfestival.com/,n/a,,,,
106,VegFest Calgary,"Calgary, AB, CANADA",,,http://www.vegfestcalgary.com/,@vegfestcalgary,,,,
107,Tri-State VegFest,"Edison, NJ, USA",,,http://vegfestexpos.com,@vegfestexpos,,,,
108,Greater London Vegan Festival,"London, UK",,,https://www.greaterlondonveganfestival.com/tickets.html,n/a,,,,
109,Richmond Vegetarian Festival (VA) ,"Richmond, VA, USA",,,http://veggiefest.org/,@rvavegfest,,,,
110,Chicago Vegandale Food Drink Festival,"Chicago, IL, USA",,,www.vegandalefest.com,@vegandale,,,,
111,Stockport Viva! Vegan Festival,"Stockport, UK",,,https://www.viva.org.uk/festivals/stockport-2018,@vivacharity,,,,
112,South East Vegan Festival,"Portsmouth, UK",,,http://www.southeastveganfestival.com/,n/a,,,,
113,Newcastle upon Tyne Vegan Festival,"Newcastle Upon Tyne, UK",,,http://veganfestival.co.uk/#arvlbdata,n/a,,,,
114,Vegetarian Summerfest NAVS,"Johnstown, PA, USA",,,https://summerfest.navs-online.org/,n/a,,,,
115,V In The Park,"Port of Menteith, SCOTLAND",,,TK,@vinthepark,,,,
116,Vegan Food Festival Amsterdam,"Amsterdam, NETHERLANDS",,,TK,TK,,,,
117,Long Beach Vegan Festival,"Long Beach, CA, USA",,,http://www.lbveganfest.com/,n/a,,,,
118,Aberdeen Vegan Festival [early year],"Aberdeen, SCOTLAND",,,veganfestival.co.uk,@veganfestivaluk,,,,
119,Sarnia VegFest,"Sarnia, ON, CANADA",,,http://sarniavegfest.com/,@sarniavegfest,,,,
120,Aberdeen Vegan Festival [latter year],"Aberdeen, SCOTLAND",,,veganfestival.co.uk,@veganfestivaluk,,,,
121,Saltaire-Bradford All-Vegan Festival,"Bradford, UK",,,n/a,n/a,,,,
122,Atlantic City Vegan Food Festival,"Atlantic City, NJ, USA",,,http://www.njvegfest.com,@njvegfest,,,,
123,Bethlehem VegFest,"Bethlehem, PA, USA",,,http://www.downtownbethlehemassociation.com/events/vegfest,n/a,,,,
124,London Vegan Beer Fest,"London, UK",,,http://veganbeerfest.co.uk/,@veganbeerfestuk,,,,
125,Funky Vegan Festival,"Amsterdam, NETHERLANDS",,,TK,@funkyveganfestival,,,,
126,Viva!City Bristol Ethical Life Festival,"Bristol, UK",,,https://www.viva.org.uk/festivals/bristol-vivacity-2018,TK,,,,
127,Blackpool Yoga and Vegan Festival,"Blackpool, UK",,,n/a,@yogific,,,,
128,VegFest Houston,"Houston, TX, USA",,,www.VegFestHouston.com,@VeganSocietyofPEACE,,,,
129,Plymouth Vegan Festival,"Plymouth, UK",,,n/a,n/a,,,,
130,We Love Vegan Food,"London, UK",,,https://welovefood.co/vegan-food-festival/,TK,,,,
131,Vegtoria Veg Fest,"Victoria, BC, CANADA",,,http://www.vegtoria.ca/,TK,,,,
132,Compassionfest,"Hamden, CT, USA",,,http://www.compassionfest.net/,@compassionfest,,,,
133,VegOut! Portland Vegan Beer & Food Festival,"Portland, OR, USA",,,http://vegoutevents.com/,n/a,,,,
134,Milton Keynes Vegan Festival,"Milton Keynes, UK",,,n/a,n/a,,,,
135,VegFest Colorado,"Golden, CO, USA",,,http://www.vegfestcolorado.org/home.html,@vegfestco,,,,
136,Spokane Vegfest,"Spokane, WA, USA",,,http://www.inveg.org/vegfest.html,@invegans,,,,
137,Coventry Vegan Beer Fest,"Manchester, UK",,,http://veganbeerfest.co.uk/,@veganbeerfestuk,,,,
138,Maidstone Vegan Festival,"Maidstone, Kent, UK",,,http://www.maidstoneveganfestival.co.uk/,n/a,,,,
139,Bath Vegan Festival,"Bath, UK",,,n/a,n/a,,,,
140,Coventry Viva! Vegan Festival,"Coventry, UK",,,https://www.viva.org.uk/festivals/coventry-2018,@vivacharity,,,,
141,Pittsburgh VegFest,"Pittsburgh, PA, USA",,,https://pittsburghvegfest.org/,@pittsburghvegfest,,,,
142,Glasgow Vegan Beer Fest,"Glasgow, SCOTLAND",,,http://veganbeerfest.co.uk/,@veganbeerfestuk,,,,
143,Vegan Connections,"Glasgow, SCOTLAND",,,n/a,@veganconnections,,,,
144,Toronto Vegandale Food Drink Festival,"Toronto, ON, CANADA",,,www.vegandalefest.com,@vegandale,,,,
145,Quad Cities Vegfest,"Rock Island, IL, USA",,,TK,TK,,,,
146,Black Vegfest,"Brooklyn, NY",,,https://blackvegfest.org/,@blackvegfest,,,,
147,Muskoka Veg Fest,"Huntsville, ON, Canada",,,http://www.muskokavegfest.com/,@muskokavegfest,,,,
148,Satvik Indian Vegan Festival,"Karnataka, INDIA",,,http://vgan.in/vegan_festival,n/a,,,,
149,VeganFestLV,"Riga, Latvia",,,http://www.veganfest.lv/,@veganfestlv,,,,
150,VegFest Kansas City,"Kansas City, MO, USA",,,vegfestkc.com,@vegfestkc,,,,
151,Triangle Vegfest,"Durham, NC, USA",,,http://www.trianglevegfest.com/,@TriangleVegfest ,,,,
152,St. John's VegFest,"St. John's, NL, CANADA",,,http://www.stjohnsvegfest.com/,@stjohnsvegfest,,,,
153,Sonoma County VegFest,"Santa Rosa, CA, USA",,,http://www.socovegfest.org/,n/a,,,,
154,Sheffield Vegan Beer Fest,"Sheffield, UK",,,http://veganbeerfest.co.uk/,@veganbeerfestuk,,,,
155,Triangle Vegfest,"Durham, NC, USA",,,http://www.trianglevegfest.com/,@TriangleVegfest ,,,,
156,Vegan SoulFest,"Baltimore, MD, USA",,,http://www.vegansoulfest.com/,@vegansoulfest,,,,
157,Veganes Sommerfest Berlin,"Berlin, GERMANY",,,www.veganes-sommerfest-berlin.de,@veganes_sommerfest_berlin,,,,
158,Vegan Street Fair LA Nights,"Los Angeles, CA, USA",,,http://www.veganstreetfair.com,@VeganStreetFair,,,,
159,Bradford Vegan Festival,"Bradford, UK",,,veganfestival.co.uk,@veganfestivaluk,,,,
160,Veg Food Fest,"Toronto, ON, CANADA",,,http://vegfoodfest.com/,@VegFoodFest,,,,
161,Vahimsa Vegan Camp,"Shamokin, PA",,,www.vahimsa.com,TK,,,,
162,Portsmouth Vegan Festival,"Portsmouth, UK",,,n/a,n/a,,,,
163,Birmingham Viva! Vegan Festival,"Birmingham, UK",,,https://www.viva.org.uk/festivals/birmingham-2018,@vivacharity,,,,
164,PlantBased Live,"London, UK",,,https://www.plantbasedlive.com/,@plantbased_live,,,,
165,Chattanooga Vegfest,"Chattanooga, TN, USA",,,https://www.facebook.com/Chattanooga-Vegfest-1246557278782440/,TK,,,,
166,SLC VegFest,"Salt Lake City, UT, USA",,,https://slcveg.com/,@slcveg,,,,
167,NEPA VegFest,"Scranton, PA, USA",,,NEPAvegfest.org,n/a,,,,
168,Dorset Vegan Festival,"Dorset, UK",,,https://www.veganeventsuk.co.uk/,TK,,,,
169,Winnipeg Vegfest,"Winnipeg, MB, CANADA",,,http://winnipegvegfest.ca/,@winnipegvegfest,,,,
170,Sheffield Vegan Festival,"Sheffield, UK",,,http://veganfestival.co.uk/#arvlbdata,@veganfestivaluk,,,,
171,Rochester VegFest,"Rochester, NY, USA",,,http://rocvegfest.org/,@rochestervegfest,,,,
172,D.C. VegFest,"Washington, DC, USA",,,http://dcvegfest.com/,@dcvegfest,,,,
173,Frome Vegan Fair,"Somerset, UK",,,n/a,@fromeveganfair,,,,
174,Peterborough VegFest,"Peterborough, ON, CANADA",,,https://ptbovegfest.ca/,@PtboVegFest,,,,
175,Twin Cities Veg Fest,"St Paul, MN, USA",,,http://www.tcvegfest.com,@tcvegfest,,,,
176,Harvest VegFest ,"York, PA, USA",,,https://www.yorkvegfest.com/,@harvestvegfestyork,,,,
177,Vegfest Guelph,"Guelph, ON, Canada",,,http://www.vegfestguelph.ca/,@VegfestGuelph,,,,
178,Vegan Vibes,"Tauranga, NEW ZEALAND",,,http://www.littlebigevents.co.nz/vegan-vibes/,@veganvibesnz,,,,
179,Live A Better Life Student Vegan Fair Liverpool [latter year],"Liverpool, UK",,,http://www.labl.org.uk,@labl.vegan,,,,
180,Dublin Vegfest ,"Dublin, IRELAND",,,http://dublinvegfest.com/,@DublinVegfest,,,,
181,New York Vegandale Food Drink Festival,"New York, NY, USA",,,www.vegandalefest.com,@vegandale,,,,
182,Phoenixville VegFest ,"Phoenixville, PA, USA",,,www.phoenixvillevegfest.com,@phxvillevegfest,,,,
183,Brighton Viva! Vegan Festival,"Brighton, UK",,,https://www.viva.org.uk/festivals/,@vivacharity,,,,
184,Vegas VegFest,"Las Vegas, NV, USA",,,http://www.vegasvegfest.com,@vegasvegfest,,,,
185,California Vegetarian Food Festival,"Hollywood, CA, USA",,,http://www.cavegfoodfest.com/,@cavegfoodfest,,,,
186,Vegan Village: a mini vegan food festival!,"Las Vegas, NV, USA",,,http://www.vegasvegfest.com,@vegasvegfest,,,,
187,Vegan Roots Fest,"Charlottesville, VA, USA",,,http://www.cvillevegfest.org/,n/a,,,,
188,York Yoga and Vegan Festival,"York, UK",,,n/a,@yogific,,,,
189,Bali Vegan Festival,"Ubud, Bali, INDONESIA",,,http://www.baliveganfestival.com/,@baliveganfestival,,,,
190,New Jersey VegFest,"Secaucus, NJ, USA",,,http://www.njvegfest.com,@njvegfest,,,,
191,Fort Wayne Veg 'n Brew Fest ,"Fort Wayne, IN, USA",,,fwvegfest.com,@fwvegest ,,,,
192,Bayou Veggie Fest,"Houma, LA, USA",,,TK,n/a,,,,
193,Grand Rapids Veg Fest,"Grand Rapids, MI, USA",,,http://grvegfest.com/,@GRVegFest,,,,
194,DurhamVeg Vegan Festival,"Whitby, ON, CANADA",,,http://www.durhamvegveganfestival.com/,@durhamveg,,,,
195,Chicago VeganMania,"Chicago, IL, USA",,,http://chicagoveganmania.com/,@chicagoveganmania,,,,
196,Enhancing Health with Plant-Based Nutrition professional medical conference,"Portland, OR, USA",,,http://nwveg.org/health-conference,@NorthwestVEG,,,,
197,Scottish Vegan Festival,"Edinburgh, SCOTLAND",,,http://www.scottishveganfestival.com/,n/a,,,,
198,Portland VegFest,"Portland, OR, USA",,,http://www.nwveg.org/vegfest.php,@NorthwestVEG,,,,
199,Kingston VegFest,"Kingston, ON, USA",,,http://www.kingstonvegfest.ca/,@KingstonVegFest,,,,
200,SoCal VegFest,"Costa Mesa, CA, USA",,,http://socalvegfest.org/,@SoCalVegFest,,,,
201,Lowcountry Veg Fest,"Hilton Head Island, SC, USA",,,http://lowcountryvegfest.com/#intro-1,n/a,,,,
202,Boston Veg Food Fest,"Boston, MA, USA",,,http://www.bostonveg.org/foodfest/,@VegBoston,,,,
203,Festival végane de Montréal,"Montreal, QC, CANADA",,,http://festivalveganedemontreal.com/en/,@fvmtl,,,,
204,VegFest NL,"Utrecht, NETHERLANDS",,,www.vegfest.nl,n/a,,,,
205,Vegan Festival Adelaide,"Adelaide, AUSTRALIA",,,https://veganfestival.info/,@vegan_festival_adelaide,,,,
206,World Veg Festival,"San Francisco, CA, USA",,,http://www.worldvegfestival.com/,@sfvegsociety,,,,
207,VegFestUK London,"London, UK",,,http://london.vegfest.co.uk/,@VegfestUK,,,,
208,Texas Veggie Fair,"Dallas, TX, USA",,,http://www.texasveggiefair.com/,@TexasVeggieFair,,,,
209,Hampton Roads VegFest,"Chesapeake, VA, USA",,,http://www.hamptonroadsvegfest.com/,@hrvegfest,,,,
210,Seed Food and Wine Festival,"Miami, FL, USA",,,http://www.seedfoodandwine.com/,@seedFW ,,,,
211,Bath Vegan Festival,"Bath, UK",,,n/a,n/a,,,,
212,North East Vegan Festival (NEVFEST),"Sunderland, UK",,,http://www.northeastveganfestival.co.uk/,n/a,,,,
213,Hudson Valley Vegfest,"Poughkeepsie, NY, USA",,,http://www.hvvegfest.org/,@hudsonvalleyvegfest,,,,
214,SouthWest Veg Fest,"Phoenix, AZ, USA",,,https://www.swvegfest.com/,@swvegfest,,,,
215,Glasgow Vegan Festival,"Glasgow, SCOTLAND",,,n/a,@Veganfestivaluk,,,,
216,VegFest London,"London, ON, CANADA",,,http://www.vegfestlondon.com/,@vegfestlondonon,,,,
217,Atlanta Veg Fest,"Atlanta, GA, USA",,,http://atlantavegfest.com/,@atlantavegfest,,,,
218,Palm Beach VegFest,"Palm Beach, FL, USA",,,https://www.pbvegfest.com/,@PBVegFest,,,,
219,VegOut! Tucson,"Scottsdale, AZ, USA",,,http://vegoutevents.com/,n/a,,,,
220,Sydney Cruelty Free Festival,"Sydney, AUSTRALIA",,,http://crueltyfreefestival.org.au/,@crueltyfreefestival,,,,
221,Manchester Vegan Christmas Market,"Manchester, UK",,,TK,TK,,,,
222,Southampton Vegan Festival,"Southampton, UK",,,https://www.southamptonveganfestival.co.uk,@southamptonveganfestival,,,,
223,Space Coast VegFest,"Cocoa Village, FL, USA",,,http://spacecoastvegfest.org/,n/a,,,,
224,VegFest Fort Lauderdale,"Fort Lauderdale, FL, USA",,,http://vegfestexpos.com,@vegfestexpos,,,,
225,VegFest Pilipinas,"Manila, PHILIPPINES",,,http://www.vegfestpilipinas.com,@vegfestpilipinas,,,,
226,Charlotte Vegfest,"Charlotte, NC, USA",,,http://www.charlottevegfest.com/,n/a,,,,
227,Croatian Veganmania,"Zagreb, CROATIA",,,zegevege.com,n/a,,,,
228,VegFest Windsor,"Windsor, ON, CANADA",,,www.vegfestwindsor.ca,@vegfestwindsor,,,,
229,Hudson Valley Vegan Food Festival,"Newburgh, NY, USA",,,TK,TK,,,,
230,Absolutely Fabulous Vegan Festival,"Aberystwyth, UK",,,n/a,n/a,,,,
231,Curacao Vegan Food Fest Christmas,"Willemstad, CURACAO",,,n/a,n/a,,,,
232,FarGo’s Vegan Festival: Cruelty Free Christmas,"Fargo Village, Coventry, UK",,,n/a,n/a,,,,
233,Hull Vegan Festival,"Hull, UK",,,n/a,n/a,,,,
234,Kettering Vegan Festival,"Kettering, UK",,,n/a,n/a,,,,
235,Long Island Vegan Food and Information Extravaganza,"Huntington Station, NY, USA",,,n/a,n/a,,,,
236,Manchester Vegan Food and Drink Festival,"Manchester, UK",,,n/a,n/a,,,,
237,Saigon Vegan Festival,"Ho Chi Minh City, VIETNAM",,,n/a,n/a,,,,
238,Taiwan Vegan Frenzy,"Taipei, TAIWAN",,,n/a,n/a,,,,
239,West Yorkshire Vegan Festival,"Dewsbury, UK",,,https://www.westyorkshireveganfestival.com,n/a,,,,
240,VegeQ,"Hoofddorp, NETHERLANDS",,,https://www.veggiefair.nl,n/a,,,,
241,Veggie Fair ,"Hoofddorp, NETHERLANDS",,,https://www.veggiefair.nl,n/a,,,,
242,VFP Vegan Festival,"Brighton, UK",,,https://www.veganfoodpimp.com/vfp-vegan-festival-2017,@veganfoodpimp,,,,
243,Central Manchester Vegan Fair,"Manchester, UK",,,https://www.northernveganfestival.com,n/a,,,,
244,Iowa Vegfest,"Windsor Heights, IA, USA",,,https://www.iowavegfest.com/,@iowavegfest,,,,
245,Bluegrass VegFest ,"Louisville, KY, USA",,,https://www.bluegrassvegfest.com/,@bluegrassvegfest,,,,
246,Philly SEED Fest,"Philadelphia, PA, USA",,,https://phillyseed.com,@phillyseedfest,,,,
247,BoEtico VeganFestival,"Bologna, ITALY",,,https://boeticoveganfest.wordpress.com/,n/a,,,,
248,WNY Vegfest,"Buffalo, NY, USA",,,http://www.wnyvegfest.com/,@WNYVegFest,,,,
249,Veg Fest Vancouver,"Vancouver, BC, CANADA",,,TK,@VegFestVan,,,,
250,Hong Kong Vegfest,"Hong Kong SAR, CHINA",,,TK,n/a,,,,
251,VegFest Brasil,"Campos do Jordão, BRAZIL",,,c,n/a,,,,
252,Leeds Ethical Christmas Market,"Leeds, UK",,,http://www.veganwinterfest.co.uk/,n/a,,,,
253,Manchester Vegan Fair,"Manchester, UK",,,http://www.veganorganic.net/,n/a,,,,
254,San Diego Veg Festival,"San Diego, CA, USA",,,http://www.sandiegovegfest.com/,@SanDiegoVegFest,,,,
255,Living Green Festival,"Canberra, ACT, AUSTRALIA",,,http://www.livinggreenfestival.org.au/,@lgfcanberra,,,,
256,Lagos Veg Fest,"Lagos, NIGERIA",,,TK,@lagosvegfest,,,,
257,Bournemouth Vegan Fair,"Bournemouth, UK",,,http://www.dorsetveganevents.co.uk/bournemouth-vegan-fair,@dorset_vegan,,,,
258,Poole Vegan Fair,"Poole, Dorset, UK",,,http://www.dorsetvegan.co.uk/poole-vegan-fair.html,@Dorset_vegan,,,,
259,Compassionfest Vegan Holiday Bazaar,"Hamden, CT, USA",,,http://www.compassionfest.net/,@compassionfest,,,,
260,Care Vegan Festival aka Chester County Vegan Festival,"West Chester, PA, USA",,,TK,n/a,,,,
261,Central Florida Veg Fest ,"Orlando, FL, USA",,,http://www.cfvegfest.org/,n/a,,,,
262,Columbus Vegfest,"Columbus, OH, USA",,,http://www.cbusvegfest.com/,n/a,,,,
263,Alaska VegFest,"Anchorage, AK, USA",,,http://www.alaskavegfest.com/,n/a,,,,
264,VegFest Oahu,"Honolulu, HI, USA",,,http://vegfestoahu.com/,@vegfestoahu,,,,
265,Vegan Summer Festival London,"London, UK",,,http://vegansummerfestuk.com/,n/a,,,,
266,VON Manchester VEGAN FEST,"Manchester, UK",,,http://veganorganic.net/von-manchester-vegan-fest-2/,TK,,,,
267,Evesham Vegan Fair,"Evesham, UK",,,http://veganmidlands.org.uk,n/a,,,,
268,Edinburgh Ethical WinterFest,"Edinburgh, SCOTLAND",,,http://veganfestival.co.uk/,@Veganfestivaluk,,,,
269,Mad City Vegan Fest,"Madison, WI, USA",,,http://veganfest.org/,n/a,,,,
270,Baltimore VegFest,"Baltimore, MD, USA",,,TK,@baltimorevegfest,,,,
271,Tampa Bay VegFest,"Tampa, FL, USA",,,http://tampabayvegfest.org/,@tampabayvegfest,,,,
272,Lex Veg Fest,"Lexington, KY, USA",,,http://lexvegfest.org/,n/a,,,,
273,Fargo Moorhead VegFest,"Moorhead, MN, USA",,,TK,@fmvegfest,,,,
274,Dundee Vegan Fest,"Dundee, UK",,,http://dundeeveganfestival.co.uk,@DundeeVeganFest,,,,
275,NOLA Veggie Fest,"New Orleans, LA, USA",,,http://nolaveggiefest.com/,n/a,,,,